ONEWEB-0640             
1 55804U 23029J   26035.80540485 -.00000151  00000+0 -44241-3 0  9994
2 55804  87.9021 316.1460 0001392  51.1225 309.0029 13.14503751142025
ONEWEB-0641             
1 55805U 23029K   26036.25758214 -.00000013  00000+0 -64730-4 0  9999
2 55805  87.9250 331.2253 0001605  82.8419 277.2896 13.19728095141517
ONEWEB-0642             
1 55806U 23029L   26036.25283704  .00000032  00000+0  46933-4 0  9991
2 55806  87.9243 331.2437 0001436  93.0161 267.1136 13.19727821141504
ONEWEB-0643             
1 55807U 23029M   26036.23197496  .00000125  00000+0  30211-3 0  9996
2 55807  87.9023 316.0482 0001447 101.6098 258.5194 13.14502985142055
ONEWEB-0644             
1 55808U 23029N   26036.24811121  .00000048  00000+0  86870-4 0  9993
2 55808  87.9240 331.2527 0001504  89.5589 270.5716 13.19726723141505
ONEWEB-0645             
1 55809U 23029P   26036.04276024  .00000017  00000+0  89880-5 0  9990
2 55809  87.9236 331.2854 0001197  75.8952 284.2314 13.19724316141472
ONEWEB-0646             
1 55810U 23029Q   26036.28758809  .00000066  00000+0  13173-3 0  9998
2 55810  87.9254 331.2338 0001595  84.9170 275.2145 13.19724099141498
ONEWEB-0648             
1 55811U 23029R   26036.20025432 -.00000013  00000+0 -68969-4 0  9998
2 55811  87.9027 316.0179 0000717  83.8866 276.2345 13.14502748142052
ONEWEB-0649             
1 55812U 23029S   26036.23704729  .00000037  00000+0  59911-4 0  9996
2 55812  87.9252 331.2407 0001349  81.1663 278.9622 13.19727703141527
ONEWEB-0650             
1 55813U 23029T   26036.23230763 -.00001859  00000+0 -46773-2 0  9994
2 55813  87.9251 331.2459 0001641  72.3552 287.7760 13.19734895141495
ONEWEB-0652             
1 55814U 23029U   26036.18123664 -.00000215  00000+0 -61530-3 0  9994
2 55814  87.9025 316.0383 0001816  75.0896 285.0434 13.14503366142028
ONEWEB-0653             
1 55815U 23029V   26036.16538040 -.00000035  00000+0 -12914-3 0  9993
2 55815  87.9029 316.0315 0001782  69.0944 291.0376 13.14502295142052
ONEWEB-0654             
1 55816U 23029W   26035.32332339  .00000037  00000+0  64545-4 0  9992
2 55816  87.9030 316.1986 0002102  71.1361 288.9997 13.14502886141963
ONEWEB-0656             
1 55817U 23029X   26036.15998654  .00000139  00000+0  30963-3 0  9992
2 55817  87.9220 300.7770 0002026  71.9512 288.1842 13.20774292143722
ONEWEB-0657             
1 55818U 23029Y   26036.22756912  .00000078  00000+0  16366-3 0  9993
2 55818  87.9242 331.2460 0002420  88.6959 271.4451 13.19726874141506
ONEWEB-0658             
1 55819U 23029Z   26036.22283373  .00000077  00000+0  16110-3 0  9996
2 55819  87.9260 331.2101 0001473  91.4709 268.6592 13.19726988141512
ONEWEB-0660             
1 55820U 23029AA  26036.21452893  .00000267  00000+0  68450-3 0  9997
2 55820  87.9033 316.0058 0001405  71.1343 288.9939 13.14505159142069
