[{"OBJECT_NAME":"ONEWEB-0640","OBJECT_ID":"2023-029J","EPOCH":"2026-02-04T19:19:46.979040","MEAN_MOTION":13.14503751,"ECCENTRICITY":0.00013922,"INCLINATION":87.9021,"RA_OF_ASC_NODE":316.146,"ARG_OF_PERICENTER":51.1225,"MEAN_ANOMALY":309.0029,"EPHEMERIS_TYPE":0,"CLASSIFICATION_TYPE":"U","NORAD_CAT_ID":55804,"ELEMENT_SET_NO":999,"REV_AT_EPOCH":14202,"BSTAR":-0.00044240687,"MEAN_MOTION_DOT":-1.51e-6,"MEAN_MOTION_DDOT":0},{"OBJECT_NAME":"ONEWEB-0641","OBJECT_ID":"2023-029K","EPOCH":"2026-02-05T06:10:55.096896","MEAN_MOTION":13.19728095,"ECCENTRICITY":0.00016053,"INCLINATION":87.925,"RA_OF_ASC_NODE":331.2253,"ARG_OF_PERICENTER":82.8419,"MEAN_ANOMALY":277.2896,"EPHEMERIS_TYPE":0,"CLASSIFICATION_TYPE":"U","NORAD_CAT_ID":55805,"ELEMENT_SET_NO":999,"REV_AT_EPOCH":14151,"BSTAR":-6.472965e-5,"MEAN_MOTION_DOT":-1.3e-7,"MEAN_MOTION_DDOT":0},{"OBJECT_NAME":"ONEWEB-0642","OBJECT_ID":"2023-029L","EPOCH":"2026-02-05T06:04:05.120256","MEAN_MOTION":13.19727821,"ECCENTRICITY":0.00014367,"INCLINATION":87.9243,"RA_OF_ASC_NODE":331.2437,"ARG_OF_PERICENTER":93.0161,"MEAN_ANOMALY":267.1136,"EPHEMERIS_TYPE":0,"CLASSIFICATION_TYPE":"U","NORAD_CAT_ID":55806,"ELEMENT_SET_NO":999,"REV_AT_EPOCH":14150,"BSTAR":4.6932893e-5,"MEAN_MOTION_DOT":3.2e-7,"MEAN_MOTION_DDOT":0},{"OBJECT_NAME":"ONEWEB-0643","OBJECT_ID":"2023-029M","EPOCH":"2026-02-05T05:34:02.636544","MEAN_MOTION":13.14502985,"ECCENTRICITY":0.00014476,"INCLINATION":87.9023,"RA_OF_ASC_NODE":316.0482,"ARG_OF_PERICENTER":101.6098,"MEAN_ANOMALY":258.5194,"EPHEMERIS_TYPE":0,"CLASSIFICATION_TYPE":"U","NORAD_CAT_ID":55807,"ELEMENT_SET_NO":999,"REV_AT_EPOCH":14205,"BSTAR":0.00030210723,"MEAN_MOTION_DOT":1.25e-6,"MEAN_MOTION_DDOT":0},{"OBJECT_NAME":"ONEWEB-0644","OBJECT_ID":"2023-029N","EPOCH":"2026-02-05T05:57:16.808544","MEAN_MOTION":13.19726723,"ECCENTRICITY":0.0001504,"INCLINATION":87.924,"RA_OF_ASC_NODE":331.2527,"ARG_OF_PERICENTER":89.5589,"MEAN_ANOMALY":270.5716,"EPHEMERIS_TYPE":0,"CLASSIFICATION_TYPE":"U","NORAD_CAT_ID":55808,"ELEMENT_SET_NO":999,"REV_AT_EPOCH":14150,"BSTAR":8.6869971e-5,"MEAN_MOTION_DOT":4.8e-7,"MEAN_MOTION_DDOT":0},{"OBJECT_NAME":"ONEWEB-0645","OBJECT_ID":"2023-029P","EPOCH":"2026-02-05T01:01:34.484736","MEAN_MOTION":13.19724316,"ECCENTRICITY":0.0001197,"INCLINATION":87.9236,"RA_OF_ASC_NODE":331.2854,"ARG_OF_PERICENTER":75.8952,"MEAN_ANOMALY":284.2314,"EPHEMERIS_TYPE":0,"CLASSIFICATION_TYPE":"U","NORAD_CAT_ID":55809,"ELEMENT_SET_NO":999,"REV_AT_EPOCH":14147,"BSTAR":8.988007e-6,"MEAN_MOTION_DOT":1.7e-7,"MEAN_MOTION_DDOT":0},{"OBJECT_NAME":"ONEWEB-0646","OBJECT_ID":"2023-029Q","EPOCH":"2026-02-05T06:54:07.610976","MEAN_MOTION":13.19724099,"ECCENTRICITY":0.00015954,"INCLINATION":87.9254,"RA_OF_ASC_NODE":331.2338,"ARG_OF_PERICENTER":84.917,"MEAN_ANOMALY":275.2145,"EPHEMERIS_TYPE":0,"CLASSIFICATION_TYPE":"U","NORAD_CAT_ID":55810,"ELEMENT_SET_NO":999,"REV_AT_EPOCH":14149,"BSTAR":0.00013172945,"MEAN_MOTION_DOT":6.6e-7,"MEAN_MOTION_DDOT":0},{"OBJECT_NAME":"ONEWEB-0648","OBJECT_ID":"2023-029R","EPOCH":"2026-02-05T04:48:21.973248","MEAN_MOTION":13.14502748,"ECCENTRICITY":7.174e-5,"INCLINATION":87.9027,"RA_OF_ASC_NODE":316.0179,"ARG_OF_PERICENTER":83.8866,"MEAN_ANOMALY":276.2345,"EPHEMERIS_TYPE":0,"CLASSIFICATION_TYPE":"U","NORAD_CAT_ID":55811,"ELEMENT_SET_NO":999,"REV_AT_EPOCH":14205,"BSTAR":-6.8969412e-5,"MEAN_MOTION_DOT":-1.3e-7,"MEAN_MOTION_DDOT":0},{"OBJECT_NAME":"ONEWEB-0649","OBJECT_ID":"2023-029S","EPOCH":"2026-02-05T05:41:20.885856","MEAN_MOTION":13.19727703,"ECCENTRICITY":0.0001349,"INCLINATION":87.9252,"RA_OF_ASC_NODE":331.2407,"ARG_OF_PERICENTER":81.1663,"MEAN_ANOMALY":278.9622,"EPHEMERIS_TYPE":0,"CLASSIFICATION_TYPE":"U","NORAD_CAT_ID":55812,"ELEMENT_SET_NO":999,"REV_AT_EPOCH":14152,"BSTAR":5.9911032e-5,"MEAN_MOTION_DOT":3.7e-7,"MEAN_MOTION_DDOT":0},{"OBJECT_NAME":"ONEWEB-0650","OBJECT_ID":"2023-029T","EPOCH":"2026-02-05T05:34:31.379232","MEAN_MOTION":13.19734895,"ECCENTRICITY":0.0001641,"INCLINATION":87.9251,"RA_OF_ASC_NODE":331.2459,"ARG_OF_PERICENTER":72.3552,"MEAN_ANOMALY":287.776,"EPHEMERIS_TYPE":0,"CLASSIFICATION_TYPE":"U","NORAD_CAT_ID":55813,"ELEMENT_SET_NO":999,"REV_AT_EPOCH":14149,"BSTAR":-0.004677257,"MEAN_MOTION_DOT":-1.859e-5,"MEAN_MOTION_DDOT":0},{"OBJECT_NAME":"ONEWEB-0652","OBJECT_ID":"2023-029U","EPOCH":"2026-02-05T04:20:58.845696","MEAN_MOTION":13.14503366,"ECCENTRICITY":0.00018163,"INCLINATION":87.9025,"RA_OF_ASC_NODE":316.0383,"ARG_OF_PERICENTER":75.0896,"MEAN_ANOMALY":285.0434,"EPHEMERIS_TYPE":0,"CLASSIFICATION_TYPE":"U","NORAD_CAT_ID":55814,"ELEMENT_SET_NO":999,"REV_AT_EPOCH":14202,"BSTAR":-0.0006152959,"MEAN_MOTION_DOT":-2.15e-6,"MEAN_MOTION_DDOT":0},{"OBJECT_NAME":"ONEWEB-0653","OBJECT_ID":"2023-029V","EPOCH":"2026-02-05T03:58:08.866560","MEAN_MOTION":13.14502295,"ECCENTRICITY":0.00017826,"INCLINATION":87.9029,"RA_OF_ASC_NODE":316.0315,"ARG_OF_PERICENTER":69.0944,"MEAN_ANOMALY":291.0376,"EPHEMERIS_TYPE":0,"CLASSIFICATION_TYPE":"U","NORAD_CAT_ID":55815,"ELEMENT_SET_NO":999,"REV_AT_EPOCH":14205,"BSTAR":-0.00012913799,"MEAN_MOTION_DOT":-3.5e-7,"MEAN_MOTION_DDOT":0},{"OBJECT_NAME":"ONEWEB-0654","OBJECT_ID":"2023-029W","EPOCH":"2026-02-04T07:45:35.140896","MEAN_MOTION":13.14502886,"ECCENTRICITY":0.0002102,"INCLINATION":87.903,"RA_OF_ASC_NODE":316.1986,"ARG_OF_PERICENTER":71.1361,"MEAN_ANOMALY":288.9997,"EPHEMERIS_TYPE":0,"CLASSIFICATION_TYPE":"U","NORAD_CAT_ID":55816,"ELEMENT_SET_NO":999,"REV_AT_EPOCH":14196,"BSTAR":6.4544518e-5,"MEAN_MOTION_DOT":3.7e-7,"MEAN_MOTION_DDOT":0},{"OBJECT_NAME":"ONEWEB-0656","OBJECT_ID":"2023-029X","EPOCH":"2026-02-05T03:50:22.837056","MEAN_MOTION":13.20774292,"ECCENTRICITY":0.00020269,"INCLINATION":87.922,"RA_OF_ASC_NODE":300.777,"ARG_OF_PERICENTER":71.9512,"MEAN_ANOMALY":288.1842,"EPHEMERIS_TYPE":0,"CLASSIFICATION_TYPE":"U","NORAD_CAT_ID":55817,"ELEMENT_SET_NO":999,"REV_AT_EPOCH":14372,"BSTAR":0.00030963206,"MEAN_MOTION_DOT":1.39e-6,"MEAN_MOTION_DDOT":0},{"OBJECT_NAME":"ONEWEB-0657","OBJECT_ID":"2023-029Y","EPOCH":"2026-02-05T05:27:41.971968","MEAN_MOTION":13.19726874,"ECCENTRICITY":0.00024206,"INCLINATION":87.9242,"RA_OF_ASC_NODE":331.246,"ARG_OF_PERICENTER":88.6959,"MEAN_ANOMALY":271.4451,"EPHEMERIS_TYPE":0,"CLASSIFICATION_TYPE":"U","NORAD_CAT_ID":55818,"ELEMENT_SET_NO":999,"REV_AT_EPOCH":14150,"BSTAR":0.00016366072,"MEAN_MOTION_DOT":7.8e-7,"MEAN_MOTION_DDOT":0},{"OBJECT_NAME":"ONEWEB-0658","OBJECT_ID":"2023-029Z","EPOCH":"2026-02-05T05:20:52.834272","MEAN_MOTION":13.19726988,"ECCENTRICITY":0.00014735,"INCLINATION":87.926,"RA_OF_ASC_NODE":331.2101,"ARG_OF_PERICENTER":91.4709,"MEAN_ANOMALY":268.6592,"EPHEMERIS_TYPE":0,"CLASSIFICATION_TYPE":"U","NORAD_CAT_ID":55819,"ELEMENT_SET_NO":999,"REV_AT_EPOCH":14151,"BSTAR":0.00016110423,"MEAN_MOTION_DOT":7.7e-7,"MEAN_MOTION_DDOT":0},{"OBJECT_NAME":"ONEWEB-0660","OBJECT_ID":"2023-029AA","EPOCH":"2026-02-05T05:08:55.299552","MEAN_MOTION":13.14505159,"ECCENTRICITY":0.00014053,"INCLINATION":87.9033,"RA_OF_ASC_NODE":316.0058,"ARG_OF_PERICENTER":71.1343,"MEAN_ANOMALY":288.9939,"EPHEMERIS_TYPE":0,"CLASSIFICATION_TYPE":"U","NORAD_CAT_ID":55820,"ELEMENT_SET_NO":999,"REV_AT_EPOCH":14206,"BSTAR":0.00068449568,"MEAN_MOTION_DOT":2.67e-6,"MEAN_MOTION_DDOT":0}]
